OBJECT_NAME,OBJECT_ID,EPOCH,MEAN_MOTION,ECCENTRICITY,INCLINATION,RA_OF_ASC_NODE,ARG_OF_PERICENTER,MEAN_ANOMALY,EPHEMERIS_TYPE,CLASSIFICATION_TYPE,NORAD_CAT_ID,ELEMENT_SET_NO,REV_AT_EPOCH,BSTAR,MEAN_MOTION_DOT,MEAN_MOTION_DDOT
STARLINK-5917,2023-037AE,2026-07-10T09:23:48.795072,14.98330604,.0003001,70.0009,334.9251,265.8867,94.1949,0,U,55942,999,18236,-.19683021E-4,-.328E-5,0
STARLINK-5932,2023-037AF,2026-07-10T09:35:50.025984,14.98329826,.00031257,70.0004,334.9453,268.4833,91.5968,0,U,55943,999,18236,.8499618E-5,.8E-7,0
STARLINK-5926,2023-037AG,2026-07-10T09:29:49.437312,14.98329301,.00029251,70.0006,334.9396,265.1815,94.9010,0,U,55944,999,18236,.816209E-6,-.83E-6,0
STARLINK-5925,2023-037AH,2026-07-10T09:42:05.520384,14.98314343,.00032715,70.0001,334.9698,269.5340,90.5444,0,U,55945,999,18236,.52237507E-4,.53E-5,0
STARLINK-5900,2023-037AL,2026-07-10T08:23:26.091456,14.98329938,.00031324,70.0006,315.3010,270.0287,90.0514,0,U,55948,999,18284,.71225241E-4,.757E-5,0
STARLINK-5899,2023-037AM,2026-07-10T06:59:18.451392,14.98331279,.00031565,70.0001,315.4986,268.8264,91.2534,0,U,55949,999,18283,.6830068E-5,-.12E-6,0
STARLINK-5911,2023-037AN,2026-07-09T11:27:40.570560,14.98322191,.00030733,70.0000,317.4790,261.6008,98.4803,0,U,55950,999,18271,.61015155E-4,.635E-5,0
STARLINK-5908,2023-037AP,2026-07-10T09:17:49.168032,14.98320977,.00034224,70.0001,334.9096,271.6670,88.4097,0,U,55951,999,18236,.11657214E-3,.1298E-4,0
STARLINK-5893,2023-037AQ,2026-07-10T08:23:39.563808,14.98329117,.00030607,70.0010,315.3028,268.1512,91.9296,0,U,55952,999,18284,.10865931E-4,.37E-6,0
STARLINK-5892,2023-037AS,2026-07-09T12:27:43.962048,14.98331995,.00033344,69.9999,317.2173,270.2786,89.7991,0,U,55954,999,18272,.286933E-4,.249E-5,0
STARLINK-5878,2023-037AT,2026-07-09T12:51:46.375488,14.98330651,.00032206,70.0004,317.2774,269.5704,90.5086,0,U,55955,999,18272,.17804704E-4,.119E-5,0
STARLINK-5883,2023-037AU,2026-07-10T07:29:19.372128,14.98333601,.0003194,69.9998,315.1685,269.7793,90.3000,0,U,55956,999,18284,.1654414E-4,.104E-5,0
STARLINK-5884,2023-037AV,2026-07-10T08:11:24.973728,14.98332943,.00034625,70.0001,315.2718,266.3553,93.7210,0,U,55957,999,18284,.64946834E-4,.682E-5,0
STARLINK-5928,2023-037AW,2026-07-10T07:59:22.608384,14.98330291,.00032974,70.0002,315.2424,270.6250,89.4532,0,U,55958,999,18284,-.3914179E-5,-.14E-5,0
STARLINK-5929,2023-037AX,2026-07-09T12:39:45.122112,14.98332210,.00033065,70.0001,317.2469,268.8022,91.2758,0,U,55959,999,18272,.11655669E-4,.46E-6,0
STARLINK-5938,2023-037AY,2026-07-09T12:58:01.469856,14.98332196,.0003171,70.0004,317.2740,271.2111,88.8685,0,U,55960,999,18272,.57860132E-4,.597E-5,0
STARLINK-5933,2023-037AZ,2026-07-09T15:33:58.996800,14.98335460,.00032842,69.9999,316.8658,269.1383,90.9400,0,U,55961,999,18274,.2918656E-4,.255E-5,0
STARLINK-5906,2023-037BA,2026-07-10T08:29:25.848960,14.98330360,.00033397,70.0002,315.3105,267.7447,92.3330,0,U,55962,999,18284,.20498211E-4,.152E-5,0
STARLINK-5924,2023-037BB,2026-07-10T07:47:21.314400,14.98332771,.00031677,70.0000,315.2127,268.8128,91.2668,0,U,55963,999,18284,-.17618873E-4,-.303E-5,0
STARLINK-5895,2023-037BC,2026-07-09T11:29:08.601792,15.11285348,.00024232,69.9963,308.2171,189.5079,170.6042,0,U,55964,999,18294,.97529339E-3,.16386E-3,0
STARLINK-5894,2023-037BD,2026-07-10T07:23:18.592512,14.98333920,.00033999,69.9999,315.1536,267.4094,92.6676,0,U,55965,999,18284,.1484055E-5,-.75E-6,0
GLOBAL-19,2023-041B,2026-07-09T22:51:50.896224,15.38589343,.00087792,42.0016,69.0757,183.2971,176.7812,0,U,55982,999,18543,.25562462E-3,.9716E-4,0
