STARLINK-5917           
1 55942U 23037AE  26191.39153698 -.00000328  00000+0 -19683-4 0  9998
2 55942  70.0009 334.9251 0003001 265.8867  94.1949 14.98330604182360
STARLINK-5932           
1 55943U 23037AF  26191.39988456  .00000008  00000+0  84996-5 0  9990
2 55943  70.0004 334.9453 0003125 268.4833  91.5968 14.98329826182365
STARLINK-5926           
1 55944U 23037AG  26191.39571108 -.00000083  00000+0  81621-6 0  9990
2 55944  70.0006 334.9396 0002925 265.1815  94.9010 14.98329301182368
STARLINK-5925           
1 55945U 23037AH  26191.40423056  .00000530  00000+0  52238-4 0  9997
2 55945  70.0001 334.9698 0003271 269.5340  90.5444 14.98314343182368
STARLINK-5900           
1 55948U 23037AL  26191.34960754  .00000757  00000+0  71225-4 0  9992
2 55948  70.0006 315.3010 0003132 270.0287  90.0514 14.98329938182842
STARLINK-5899           
1 55949U 23037AM  26191.29118578 -.00000012  00000+0  68301-5 0  9993
2 55949  70.0001 315.4986 0003156 268.8264  91.2534 14.98331279182832
STARLINK-5911           
1 55950U 23037AN  26190.47755290  .00000635  00000+0  61015-4 0  9996
2 55950  70.0000 317.4790 0003073 261.6008  98.4803 14.98322191182711
STARLINK-5908           
1 55951U 23037AP  26191.38737463  .00001298  00000+0  11657-3 0  9992
2 55951  70.0001 334.9096 0003422 271.6670  88.4097 14.98320977182365
STARLINK-5893           
1 55952U 23037AQ  26191.34976347  .00000037  00000+0  10866-4 0  9997
2 55952  70.0010 315.3028 0003060 268.1512  91.9296 14.98329117182846
STARLINK-5892           
1 55954U 23037AS  26190.51925882  .00000249  00000+0  28693-4 0  9997
2 55954  69.9999 317.2173 0003334 270.2786  89.7991 14.98331995182725
STARLINK-5878           
1 55955U 23037AT  26190.53595342  .00000119  00000+0  17805-4 0  9993
2 55955  70.0004 317.2774 0003220 269.5704  90.5086 14.98330651182721
STARLINK-5883           
1 55956U 23037AU  26191.31202977  .00000104  00000+0  16544-4 0  9993
2 55956  69.9998 315.1685 0003194 269.7793  90.3000 14.98333601182844
STARLINK-5884           
1 55957U 23037AV  26191.34126127  .00000682  00000+0  64947-4 0  9990
2 55957  70.0001 315.2718 0003462 266.3553  93.7210 14.98332943182844
STARLINK-5928           
1 55958U 23037AW  26191.33290056 -.00000140  00000+0 -39142-5 0  9994
2 55958  70.0002 315.2424 0003297 270.6250  89.4532 14.98330291182841
STARLINK-5929           
1 55959U 23037AX  26190.52760558  .00000046  00000+0  11656-4 0  9996
2 55959  70.0001 317.2469 0003306 268.8022  91.2758 14.98332210182720
STARLINK-5938           
1 55960U 23037AY  26190.54029479  .00000597  00000+0  57860-4 0  9998
2 55960  70.0004 317.2740 0003171 271.2111  88.8685 14.98332196182728
STARLINK-5933           
1 55961U 23037AZ  26190.64859950  .00000255  00000+0  29187-4 0  9997
2 55961  69.9999 316.8658 0003284 269.1383  90.9400 14.98335460182742
STARLINK-5906           
1 55962U 23037BA  26191.35377140  .00000152  00000+0  20498-4 0  9995
2 55962  70.0002 315.3105 0003339 267.7447  92.3330 14.98330360182841
STARLINK-5924           
1 55963U 23037BB  26191.32455225 -.00000303  00000+0 -17619-4 0  9995
2 55963  70.0000 315.2127 0003167 268.8128  91.2668 14.98332771182840
STARLINK-5895           
1 55964U 23037BC  26190.47857178  .00016386  00000+0  97529-3 0  9997
2 55964  69.9963 308.2171 0002423 189.5079 170.6042 15.11285348182947
STARLINK-5894           
1 55965U 23037BD  26191.30785408 -.00000075  00000+0  14841-5 0  9994
2 55965  69.9999 315.1536 0003399 267.4094  92.6676 14.98333920182844
GLOBAL-19               
1 55982U 23041B   26190.95267241  .00009716  00000+0  25562-3 0  9998
2 55982  42.0016  69.0757 0008779 183.2971 176.7812 15.38589343185432
